[{"OBJECT_NAME":"NETSAT-1","OBJECT_ID":"2020-068W","EPOCH":"2026-03-09T22:42:38.711232","MEAN_MOTION":15.32042482,"ECCENTRICITY":0.00057337,"INCLINATION":97.8751,"RA_OF_ASC_NODE":63.2583,"ARG_OF_PERICENTER":18.5877,"MEAN_ANOMALY":341.5572,"EPHEMERIS_TYPE":0,"CLASSIFICATION_TYPE":"U","NORAD_CAT_ID":46506,"ELEMENT_SET_NO":999,"REV_AT_EPOCH":30009,"BSTAR":0.00059222329,"MEAN_MOTION_DOT":0.00018269,"MEAN_MOTION_DDOT":0},{"OBJECT_NAME":"STARLINK-35494","OBJECT_ID":"2025-225T","EPOCH":"2026-03-09T13:23:12.970464","MEAN_MOTION":15.30182411,"ECCENTRICITY":0.0001451,"INCLINATION":53.1577,"RA_OF_ASC_NODE":166.5941,"ARG_OF_PERICENTER":86.354,"MEAN_ANOMALY":273.7626,"EPHEMERIS_TYPE":0,"CLASSIFICATION_TYPE":"U","NORAD_CAT_ID":65927,"ELEMENT_SET_NO":999,"REV_AT_EPOCH":2438,"BSTAR":0.00055837,"MEAN_MOTION_DOT":0.00016205,"MEAN_MOTION_DDOT":0}]
